STARLINK-1679
1 46557U 20070AB  26061.00002315  .00097359  00000+0  13544-2 0  9993
2 46557  53.0484 161.4667 0005350 208.2179  77.6584 15.56195776  5864
STARLINK-2113
1 47392U 21005AV  26061.17843147  .00115004  00000+0  16030-2 0  9995
2 47392  53.0534  52.7968 0004469  75.5697 284.5809 15.56067270282508
STARLINK-2019
1 47641U 21012X   26061.17438164  .00127965  00000+0  17874-2 0  9995
2 47641  53.0489 339.2580 0005532  77.3659 282.7970 15.55949716280608
STARLINK-1279
1 45360U 20019A   26061.18502700  .00104842  00000+0  14729-2 0  9991
2 45360  53.0434 135.0626 0001225 150.7630 209.3449 15.55907095329500
STARLINK-1666
1 46357U 20062AJ  26061.10903272  .00117255  00000+0  16437-2 0  9997
2 46357  53.0492  11.1182 0006112  91.4004 268.7707 15.55894337303724
STARLINK-1171
1 45062U 20006U   26061.01159267  .00056413  00000+0  80373-3 0  9993
2 45062  53.0458 286.7339 0002036 353.1876   6.9106 15.55799030335799
STARLINK-1873
1 47158U 20088AN  26061.16668981  .00152973  00000+0  21457-2 0  9990
2 47158  53.0504 305.3063 0010058 119.4690 333.2463 15.55696319  5940
STARLINK-1067
1 44771U 19074BL  26060.92551587  .00105917  00000+0  15048-2 0  9992
2 44771  53.0523 241.7990 0001242 280.8499  79.2371 15.55596906347301
STARLINK-1994
1 47589U 21009AT  26061.19792881  .00100213  00000+0  14567-2 0  9996
2 47589  53.0497  38.4350 0009748  65.7516 294.4512 15.54953343279900
STARLINK-1272
1 45386U 20019AC  26061.00002315  .00088516  00000+0  13038-2 0  9998
2 45386  53.0455 146.9938 0001962 134.3081  99.3715 15.54696717  5716
STARLINK-1283
1 45389U 20019AF  26061.25002314  .00128065  00000+0  18789-2 0  9999
2 45389  53.0447 145.9924 0005008 209.8361  53.8850 15.54613084  5955
STARLINK-1329
1 45531U 20025A   26061.18778014  .00103725  00000+0  15327-2 0  9995
2 45531  53.0489 117.6399 0002004 282.1561  77.9224 15.54535585324282
